NORAD_CAT_ID,OBJECT_NAME,OBJECT_TYPE,EPOCH,MEAN_MOTION,ECCENTRICITY,INCLINATION,RA_OF_ASC_NODE,ARG_OF_PERICENTER,MEAN_ANOMALY,BSTAR,MEAN_MOTION_DOT,MEAN_MOTION_DDOT,TLE_LINE0,TLE_LINE1,TLE_LINE2,SEMIMAJOR_AXIS,PERIOD,APOGEE,PERIGEE,DECAYED
53995.0,STARLINK-5097,PAYLOAD,2024-07-08 22:43:23,15.08840975,0.0001382,53.2169,66.838,84.812,275.303,0.00012709,1.735e-05,0.0,0 STARLINK-5097,1 53995U 22125AH  24190.94680385  .00001735  00000-0  12709-3 0  9990,2 53995  53.2169  66.8380 0001382  84.8120 275.3030 15.08840975 97550,6917.877,95.437,540.698,538.786,0.0
53995.0,STARLINK-5097,PAYLOAD,2024-07-09 08:15:42,15.0883806,0.0001361,53.2161,65.0509,74.013,286.1012,4.2303e-05,3.85e-06,0.0,0 STARLINK-5097,1 53995U 22125AH  24191.34424615  .00000385  00000-0  42303-4 0  9991,2 53995  53.2161  65.0509 0001361  74.0130 286.1012 15.08838060 97614,6917.886,95.438,540.693,538.81,0.0
53995.0,STARLINK-5097,PAYLOAD,2024-07-09 20:58:48,15.08836449,0.0001418,53.2174,62.6786,94.1053,266.0101,-3.78e-05,-8.89e-06,0.0,0 STARLINK-5097,1 53995U 22125AH  24191.87416809 -.00000889  00000-0 -37800-4 0  9992,2 53995  53.2174  62.6786 0001418  94.1053 266.0101 15.08836449 97691,6917.891,95.438,540.737,538.775,0.0
53995.0,STARLINK-5097,PAYLOAD,2024-07-10 01:44:57,15.08842195,0.000147,53.2178,61.7844,90.2187,269.8973,5.8213e-05,6.39e-06,0.0,0 STARLINK-5097,1 53995U 22125AH  24192.07288663  .00000639  00000-0  58213-4 0  9992,2 53995  53.2178  61.7844 0001470  90.2187 269.8973 15.08842195 97809,6917.874,95.437,540.756,538.722,0.0
53995.0,STARLINK-5097,PAYLOAD,2024-07-10 08:06:29,15.08839529,0.0001506,53.218,60.5936,83.1526,276.9637,1.3854e-05,-6.7e-07,0.0,0 STARLINK-5097,1 53995U 22125AH  24192.33784662 -.00000067  00000-0  13854-4 0  9999,2 53995  53.2180  60.5936 0001506  83.1526 276.9637 15.08839529 97767,6917.882,95.438,540.789,538.705,0.0
53995.0,STARLINK-5097,PAYLOAD,2024-07-10 20:49:36,15.08825143,0.0001537,53.2184,58.2207,105.1536,254.9626,-8.4647e-05,-1.634e-05,0.0,0 STARLINK-5097,1 53995U 22125AH  24192.86777868 -.00001634  00000-0 -84647-4 0  9997,2 53995  53.2184  58.2207 0001537 105.1536 254.9626 15.08825143 97925,6917.926,95.438,540.854,538.728,0.0
53995.0,STARLINK-5097,PAYLOAD,2024-07-10 22:24:59,15.08822083,0.0001452,53.2183,57.9188,93.6298,266.486,-0.00015868,-2.811e-05,0.0,0 STARLINK-5097,1 53995U 22125AH  24192.93402044 -.00002811  00000-0 -15868-3 0  9992,2 53995  53.2183  57.9188 0001452  93.6298 266.4860 15.08822083 97850,6917.935,95.439,540.805,538.796,0.0
53995.0,STARLINK-5097,PAYLOAD,2024-07-11 19:04:59,15.08844701,0.0001485,53.2187,54.0569,110.6329,249.4822,0.00018688,2.688e-05,0.0,0 STARLINK-5097,1 53995U 22125AH  24193.79513116  .00002688  00000-0  18688-3 0  9993,2 53995  53.2187  54.0569 0001485 110.6329 249.4822 15.08844701 98060,6917.866,95.437,540.758,538.704,0.0
53995.0,STARLINK-5097,PAYLOAD,2024-07-12 14:09:37,15.08848541,0.0002092,53.2165,50.4855,82.7726,277.3504,0.00024807,3.663e-05,0.0,0 STARLINK-5097,1 53995U 22125AH  24194.59001259  .00003663  00000-0  24807-3 0  9996,2 53995  53.2165  50.4855 0002092  82.7726 277.3504 15.08848541 98107,6917.854,95.437,541.166,538.272,0.0
53995.0,STARLINK-5097,PAYLOAD,2024-07-12 20:31:09,15.08844386,0.000129,53.2157,49.296,85.0609,275.053,0.00023136,3.397e-05,0.0,0 STARLINK-5097,1 53995U 22125AH  24194.85497253  .00003397  00000-0  23136-3 0  9996,2 53995  53.2157  49.2960 0001290  85.0609 275.0530 15.08844386 98226,6917.867,95.437,540.624,538.84,0.0
53995.0,STARLINK-5097,PAYLOAD,2024-07-12 22:06:32,15.08848452,0.000131,53.2165,48.9985,88.7957,271.3185,0.00026836,3.987e-05,0.0,0 STARLINK-5097,1 53995U 22125AH  24194.92121055  .00003987  00000-0  26836-3 0  9993,2 53995  53.2165  48.9985 0001310  88.7957 271.3185 15.08848452 98152,6917.855,95.437,540.626,538.813,0.0
53995.0,STARLINK-5097,PAYLOAD,2024-07-13 07:38:51,15.08844128,0.0001198,53.2166,47.2093,102.564,257.5486,0.00011163,1.489e-05,0.0,0 STARLINK-5097,1 53995U 22125AH  24195.31865059  .00001489  00000-0  11163-3 0  9998,2 53995  53.2166  47.2093 0001198 102.5640 257.5486 15.08844128 98216,6917.868,95.437,540.562,538.904,0.0
53995.0,STARLINK-5097,PAYLOAD,2024-07-13 20:21:56,15.08849724,0.0001402,53.2174,44.8304,103.0905,257.0244,6.1202e-05,6.86e-06,0.0,0 STARLINK-5097,1 53995U 22125AH  24195.84856656  .00000686  00000-0  61202-4 0  9997,2 53995  53.2174  44.8304 0001402 103.0905 257.0244 15.08849724 98293,6917.851,95.437,540.686,538.746,0.0
53995.0,STARLINK-5097,PAYLOAD,2024-07-13 23:32:42,15.0884997,0.0001687,53.2156,44.2382,94.5675,265.551,0.0001131,1.513e-05,0.0,0 STARLINK-5097,1 53995U 22125AH  24195.98104734  .00001513  00000-0  11310-3 0  9999,2 53995  53.2156  44.2382 0001687  94.5675 265.5510 15.08849970 98390,6917.85,95.437,540.882,538.548,0.0
53995.0,STARLINK-5097,PAYLOAD,2024-07-14 07:29:38,15.08836559,0.0001433,53.2156,42.7487,104.0874,256.0278,0.00013534,1.866e-05,0.0,0 STARLINK-5097,1 53995U 22125AH  24196.31225200  .00001866  00000-0  13534-3 0  9990,2 53995  53.2156  42.7487 0001433 104.0874 256.0278 15.08836559 98447,6917.891,95.438,540.747,538.765,0.0
53995.0,STARLINK-5097,PAYLOAD,2024-07-14 20:12:43,15.08850341,0.0001794,53.2168,40.3686,112.5429,247.5754,0.00010756,1.425e-05,0.0,0 STARLINK-5097,1 53995U 22125AH  24196.84216470  .00001425  00000-0  10756-3 0  9991,2 53995  53.2168  40.3686 0001794 112.5429 247.5754 15.08850341 98523,6917.849,95.437,540.955,538.473,0.0
53995.0,STARLINK-5097,PAYLOAD,2024-07-15 20:03:30,15.08842812,0.0001335,53.2176,35.9116,96.5104,263.604,0.00010112,1.322e-05,0.0,0 STARLINK-5097,1 53995U 22125AH  24197.83577138  .00001322  00000-0  10112-3 0  9994,2 53995  53.2176  35.9116 0001335  96.5104 263.6040 15.08842812 98679,6917.872,95.437,540.66,538.813,0.0
53995.0,STARLINK-5097,PAYLOAD,2024-07-16 19:54:17,15.08848617,0.0001442,53.218,31.454,94.7145,265.4012,0.00024241,3.573e-05,0.0,0 STARLINK-5097,1 53995U 22125AH  24198.82937023  .00003573  00000-0  24241-3 0  9995,2 53995  53.2180  31.4540 0001442  94.7145 265.4012 15.08848617 98746,6917.854,95.437,540.717,538.721,0.0
53995.0,STARLINK-5097,PAYLOAD,2024-07-17 11:48:09,15.08840049,0.0001455,53.218,28.4825,104.4094,255.706,6.6634e-05,7.73e-06,0.0,0 STARLINK-5097,1 53995U 22125AH  24199.49177406  .00000773  00000-0  66634-4 0  9992,2 53995  53.2180  28.4825 0001455 104.4094 255.7060 15.08840049 98920,6917.88,95.438,540.752,538.739,0.0
53995.0,STARLINK-5097,PAYLOAD,2024-07-17 18:09:42,15.08836311,0.0001485,53.2179,27.2916,110.5471,249.5681,1.4918e-05,-5.1e-07,0.0,0 STARLINK-5097,1 53995U 22125AH  24199.75673667 -.00000051  00000-0  14918-4 0  9999,2 53995  53.2179  27.2916 0001485 110.5471 249.5681 15.08836311 98888,6917.892,95.438,540.784,538.729,0.0
53995.0,STARLINK-5097,PAYLOAD,2024-07-18 05:17:23,15.08844168,0.0001339,53.2181,25.2101,98.2651,261.8493,0.00014162,1.967e-05,0.0,0 STARLINK-5097,1 53995U 22125AH  24200.22041371  .00001967  00000-0  14162-3 0  9991,2 53995  53.2181  25.2101 0001339  98.2651 261.8493 15.08844168 98950,6917.868,95.437,540.659,538.806,0.0
53995.0,STARLINK-5097,PAYLOAD,2024-07-18 19:35:51,15.08847731,0.0001161,53.2167,22.5286,98.4652,261.6472,8.8108e-05,1.115e-05,0.0,0 STARLINK-5097,1 53995U 22125AH  24200.81657259  .00001115  00000-0  88108-4 0  9991,2 53995  53.2167  22.5286 0001161  98.4652 261.6472 15.08847731 99128,6917.857,95.437,540.525,538.919,0.0
53995.0,STARLINK-5097,PAYLOAD,2024-07-18 22:46:38,15.08844528,0.0001322,53.2172,21.9307,80.8362,279.278,0.00013429,1.85e-05,0.0,0 STARLINK-5097,1 53995U 22125AH  24200.94905516  .00001850  00000-0  13429-3 0  9996,2 53995  53.2172  21.9307 0001322  80.8362 279.2780 15.08844528 99064,6917.867,95.437,540.646,538.817,0.0
53995.0,STARLINK-5097,PAYLOAD,2024-07-19 19:26:39,15.0884055,0.0001039,53.2166,18.0684,99.002,261.109,0.00013356,1.838e-05,0.0,0 STARLINK-5097,1 53995U 22125AH  24201.81018424  .00001838  00000-0  13356-3 0  9991,2 53995  53.2166  18.0684 0001039  99.0020 261.1090 15.08840550 99278,6917.879,95.438,540.462,539.025,0.0
53995.0,STARLINK-5097,PAYLOAD,2024-07-20 11:20:31,15.08840727,0.0001358,53.2179,15.0971,90.148,269.9668,0.00025002,3.693e-05,0.0,0 STARLINK-5097,1 53995U 22125AH  24202.47258841  .00003693  00000-0  25002-3 0  9995,2 53995  53.2179  15.0971 0001358  90.1480 269.9668 15.08840727 99299,6917.878,95.438,540.683,538.804,0.0
53995.0,STARLINK-5097,PAYLOAD,2024-07-20 19:17:26,15.08862457,0.0001231,53.2167,13.6117,91.9,268.2133,0.00059013,9.122e-05,0.0,0 STARLINK-5097,1 53995U 22125AH  24202.80377968  .00009122  00000-0  59013-3 0  9996,2 53995  53.2167  13.6117 0001231  91.9000 268.2133 15.08862457 99427,6917.812,95.436,540.528,538.825,0.0
53995.0,STARLINK-5097,PAYLOAD,2024-07-21 04:49:45,15.08850768,0.0001279,53.2177,11.8197,121.5251,238.5867,0.00032245,4.849e-05,0.0,0 STARLINK-5097,1 53995U 22125AH  24203.20121864  .00004849  00000-0  32245-3 0  9992,2 53995  53.2177  11.8197 0001279 121.5251 238.5867 15.08850768 99488,6917.847,95.437,540.597,538.828,0.0
53995.0,STARLINK-5097,PAYLOAD,2024-07-21 11:11:18,15.08843333,0.0001777,53.2166,10.6346,78.2643,281.8549,9.5692e-06,-1.36e-06,0.0,0 STARLINK-5097,1 53995U 22125AH  24203.46618502 -.00000136  00000-0  95692-5 0  9993,2 53995  53.2166  10.6346 0001777  78.2643 281.8549 15.08843333 99528,6917.87,95.437,540.965,538.506,0.0
53995.0,STARLINK-5097,PAYLOAD,2024-07-21 17:32:50,15.08851748,0.0001786,53.217,9.4464,95.7099,264.4097,0.00019655,2.842e-05,0.0,0 STARLINK-5097,1 53995U 22125AH  24203.73114072  .00002842  00000-0  19655-3 0  9994,2 53995  53.2170   9.4464 0001786  95.7099 264.4097 15.08851748 99488,6917.844,95.437,540.945,538.474,0.0
53995.0,STARLINK-5097,PAYLOAD,2024-07-24 12:19:02,15.08840438,0.0001408,53.2165,356.9576,87.4043,272.7111,-0.00048715,-8.033e-05,0.0,0 STARLINK-5097,1 53995U 22125AH  24206.51322132 -.00008033  00000-0 -48715-3 0  9990,2 53995  53.2165 356.9576 0001408  87.4043 272.7111 15.08840438 99982,6917.879,95.438,540.718,538.77,0.0
